{
  "type": "FeatureCollection",
  "features": [
    {
      "type": "Feature",
      "properties": {
        "testId": "CITY_A",
        "city": "Alpha City"
      },
      "geometry": {
        "type": "Polygon",
        "coordinates": [
          [
            [10.0, 58.0],
            [10.6, 58.0],
            [10.6, 58.6],
            [10.0, 58.6],
            [10.0, 58.0]
          ]
        ]
      }
    },
    {
      "type": "Feature",
      "properties": {
        "testId": "CITY_B",
        "city": "Beta City"
      },
      "geometry": {
        "type": "Polygon",
        "coordinates": [
          [
            [10.3, 58.3],
            [10.9, 58.3],
            [10.9, 58.9],
            [10.3, 58.9],
            [10.3, 58.3]
          ]
        ]
      }
    },
    {
      "type": "Feature",
      "properties": {
        "testId": "PRIORITY",
        "county": "PriorityCounty",
        "country": "PriorityCountry"
      },
      "geometry": {
        "type": "Polygon",
        "coordinates": [
          [
            [12.0, 58.0],
            [12.4, 58.0],
            [12.4, 58.4],
            [12.0, 58.4],
            [12.0, 58.0]
          ]
        ]
      }
    },
    {
      "type": "Feature",
      "properties": {
        "testId": "COUNTRY",
        "country": "Countryland"
      },
      "geometry": {
        "type": "Polygon",
        "coordinates": [
          [
            [24.0, 59.0],
            [25.0, 59.0],
            [25.0, 60.0],
            [24.0, 60.0],
            [24.0, 59.0]
          ]
        ]
      }
    },
    {
      "type": "Feature",
      "properties": {
        "testId": "AREA",
        "area": "Metro Area"
      },
      "geometry": {
        "type": "Polygon",
        "coordinates": [
          [
            [24.2, 59.2],
            [24.8, 59.2],
            [24.8, 59.8],
            [24.2, 59.8],
            [24.2, 59.2]
          ]
        ]
      }
    },
    {
      "type": "Feature",
      "properties": {
        "testId": "UNLABELED"
      },
      "geometry": {
        "type": "Polygon",
        "coordinates": [
          [
            [14.0, 58.0],
            [14.1, 58.0],
            [14.1, 58.1],
            [14.0, 58.1],
            [14.0, 58.0]
          ]
        ]
      }
    },
    {
      "type": "Feature",
      "properties": {
        "testId": "BAD_RING",
        "area": "Bad Ring"
      },
      "geometry": {
        "type": "Polygon",
        "coordinates": [
          [
            [15.0, 58.0],
            [15.1, 58.0],
            [15.1, 58.1],
            [15.0, 58.1]
          ]
        ]
      }
    },
    {
      "type": "Feature",
      "properties": {
        "testId": "SHORT_RING",
        "area": "Short Ring"
      },
      "geometry": {
        "type": "Polygon",
        "coordinates": [
          [
            [16.0, 58.0],
            [16.2, 58.0],
            [16.0, 58.0]
          ]
        ]
      }
    },
    {
      "type": "Feature",
      "properties": {
        "testId": "HOLE_ZONE",
        "area": "HoleZone"
      },
      "geometry": {
        "type": "Polygon",
        "coordinates": [
          [
            [26.0, 59.0],
            [27.0, 59.0],
            [27.0, 60.0],
            [26.0, 60.0],
            [26.0, 59.0]
          ],
          [
            [26.2, 59.2],
            [26.8, 59.2],
            [26.8, 59.8],
            [26.2, 59.8],
            [26.2, 59.2]
          ]
        ]
      }
    },
    {
      "type": "Feature",
      "properties": {
        "testId": "HOLE_SAME_WINDING",
        "area": "HoleSameWinding"
      },
      "geometry": {
        "type": "Polygon",
        "coordinates": [
          [
            [26.0, 61.0],
            [27.0, 61.0],
            [27.0, 62.0],
            [26.0, 62.0],
            [26.0, 61.0]
          ],
          [
            [26.2, 61.2],
            [26.8, 61.2],
            [26.8, 61.8],
            [26.2, 61.8],
            [26.2, 61.2]
          ]
        ]
      }
    },
    {
      "type": "Feature",
      "properties": {
        "testId": "MULTI_ZONE",
        "area": "MultiZone"
      },
      "geometry": {
        "type": "MultiPolygon",
        "coordinates": [
          [
            [
              [28.0, 59.0],
              [28.5, 59.0],
              [28.5, 59.5],
              [28.0, 59.5],
              [28.0, 59.0]
            ]
          ],
          [
            [
              [28.6, 59.6],
              [29.0, 59.6],
              [29.0, 60.0],
              [28.6, 60.0],
              [28.6, 59.6]
            ]
          ]
        ]
      }
    },
    {
      "type": "Feature",
      "properties": {
        "testId": "MULTI_HOLE",
        "area": "MultiHole"
      },
      "geometry": {
        "type": "MultiPolygon",
        "coordinates": [
          [
            [
              [29.2, 59.0],
              [30.0, 59.0],
              [30.0, 59.8],
              [29.2, 59.8],
              [29.2, 59.0]
            ],
            [
              [29.4, 59.2],
              [29.8, 59.2],
              [29.8, 59.6],
              [29.4, 59.6],
              [29.4, 59.2]
            ]
          ]
        ]
      }
    },
    {
      "type": "Feature",
      "properties": {
        "testId": "MULTI_EMPTY",
        "area": "MultiEmpty"
      },
      "bbox": [34.0, 59.0, 34.5, 59.5],
      "geometry": {
        "type": "MultiPolygon",
        "coordinates": [
          [],
          [
            [
              [34.0, 59.0],
              [34.5, 59.0],
              [34.5, 59.5],
              [34.0, 59.5],
              [34.0, 59.0]
            ]
          ]
        ]
      }
    },
    {
      "type": "Feature",
      "properties": {
        "testId": "WRONG_BBOX",
        "area": "WrongBBox"
      },
      "bbox": [30.0, 61.0, 30.1, 61.1],
      "geometry": {
        "type": "Polygon",
        "coordinates": [
          [
            [30.0, 59.0],
            [30.5, 59.0],
            [30.5, 59.5],
            [30.0, 59.5],
            [30.0, 59.0]
          ]
        ]
      }
    },
    {
      "type": "Feature",
      "properties": {
        "testId": "BBOX_OK",
        "area": "BBoxOK"
      },
      "bbox": [31.0, 59.0, 31.5, 59.5],
      "geometry": {
        "type": "Polygon",
        "coordinates": [
          [
            [31.0, 59.0],
            [31.5, 59.0],
            [31.5, 59.5],
            [31.0, 59.5],
            [31.0, 59.0]
          ]
        ]
      }
    },
    {
      "type": "Feature",
      "properties": {
        "testId": "BAD_BBOX",
        "area": "BadBBox"
      },
      "bbox": [32.0, 59.0, 32.5],
      "geometry": {
        "type": "Polygon",
        "coordinates": [
          [
            [32.0, 59.0],
            [32.5, 59.0],
            [32.5, 59.5],
            [32.0, 59.5],
            [32.0, 59.0]
          ]
        ]
      }
    },
    {
      "type": "Feature",
      "properties": {
        "testId": "LINE_FEATURE",
        "area": "LineFeature"
      },
      "geometry": {
        "type": "LineString",
        "coordinates": [
          [40.0, 10.0],
          [40.4, 10.4]
        ]
      }
    },
    {
      "type": "Feature",
      "properties": {
        "testId": "POINT_FEATURE",
        "area": "PointFeature"
      },
      "geometry": {
        "type": "Point",
        "coordinates": [40.2, 10.2]
      }
    }
  ]
}
